[{"OBJECT_NAME":"STARLINK-1209","OBJECT_ID":"2020-012AE","EPOCH":"2026-03-09T22:23:11.967360","MEAN_MOTION":15.51155709,"ECCENTRICITY":0.00058698,"INCLINATION":53.0483,"RA_OF_ASC_NODE":332.2809,"ARG_OF_PERICENTER":271.447,"MEAN_ANOMALY":88.5866,"EPHEMERIS_TYPE":0,"CLASSIFICATION_TYPE":"U","NORAD_CAT_ID":45206,"ELEMENT_SET_NO":999,"REV_AT_EPOCH":33495,"BSTAR":0.0020679805,"MEAN_MOTION_DOT":0.00124371,"MEAN_MOTION_DDOT":0},{"OBJECT_NAME":"FLOCK 4Q-35","OBJECT_ID":"2023-174BF","EPOCH":"2026-03-09T21:44:34.605312","MEAN_MOTION":15.50220638,"ECCENTRICITY":0.00080298,"INCLINATION":97.3893,"RA_OF_ASC_NODE":157.9669,"ARG_OF_PERICENTER":147.4932,"MEAN_ANOMALY":212.6815,"EPHEMERIS_TYPE":0,"CLASSIFICATION_TYPE":"U","NORAD_CAT_ID":58309,"ELEMENT_SET_NO":999,"REV_AT_EPOCH":13039,"BSTAR":0.00066451051,"MEAN_MOTION_DOT":0.00037604,"MEAN_MOTION_DDOT":0}]
